ONEWEB-0092             
1 45437U 20020P   25327.32258823  .00000426  00000+0  11648-2 0  9992
2 45437  87.8867  62.0557 0001523 105.4881 254.6415 13.11419015275807
ONEWEB-0085             
1 45438U 20020Q   25327.28274829 -.00000093  00000+0 -29718-3 0  9992
2 45438  87.8865  62.0737 0001739 106.4893 253.6426 13.11415451275686
ONEWEB-0096             
1 45439U 20020R   25327.28444156 -.00000130  00000+0 -40331-3 0  9991
2 45439  87.8874  62.0517 0001937 110.9827 249.1508 13.11415255275672
ONEWEB-0037             
1 45440U 20020S   25327.34124828  .00000550  00000+0  15148-2 0  9992
2 45440  87.8880  62.0088 0001689 106.9797 253.1516 13.11415424275716
ONEWEB-0042             
1 45441U 20020T   25327.27413581  .00000217  00000+0  57524-3 0  9997
2 45441  87.8867  62.0537 0001588 107.4966 252.6335 13.11415724275674
ONEWEB-0098             
1 45442U 20020U   25327.34632692  .00000434  00000+0  11874-2 0  9990
2 45442  87.8869  62.0515 0001833 103.8205 256.3127 13.11416661275662
ONEWEB-0055             
1 45443U 20020V   25327.32937730  .00000601  00000+0  16595-2 0  9991
2 45443  87.8867  62.0552 0001833 104.6194 255.5137 13.11417363275637
ONEWEB-0093             
1 45444U 20020W   25327.30492418 -.00000327  00000+0 -95909-3 0  9993
2 45444  87.8872  62.0471 0001806 118.9415 241.1895 13.11417592275690
ONEWEB-0029             
1 45445U 20020X   25327.32088984  .00000330  00000+0  89417-3 0  9994
2 45445  87.8870  62.0562 0001876 109.6138 250.5193 13.11420839275677
ONEWEB-0068             
1 45446U 20020Y   25327.30465109 -.00000357  00000+0 -10436-2 0  9996
2 45446  87.8876  62.0490 0001843 108.9008 251.2320 13.11417326275617
ONEWEB-0046             
1 45447U 20020Z   25327.29630392 -.00000430  00000+0 -12496-2 0  9993
2 45447  87.8876  62.0589 0001618 112.7635 247.3664 13.11416989275628
ONEWEB-0063             
1 45448U 20020AA  25327.32514020  .00000498  00000+0  13691-2 0  9997
2 45448  87.8870  62.0502 0001535 106.5488 253.5809 13.11418497275719
ONEWEB-0019             
1 45449U 20020AB  25327.29883764 -.00000486  00000+0 -14082-2 0  9992
2 45449  87.8857  62.0673 0001835 104.6668 255.4664 13.11415846275553
ONEWEB-0094             
1 45450U 20020AC  25327.26402984 -.00000079  00000+0 -23773-3 0  9998
2 45450  87.9134  46.7817 0001858 104.0720 256.0618 13.17650347279194
ONEWEB-0087             
1 45451U 20020AD  25327.33517486  .00000631  00000+0  17443-2 0  9999
2 45451  87.8880  62.0045 0002052 112.6103 247.5242 13.11416213275609
ONEWEB-0082             
1 45452U 20020AE  25327.33192160  .00000527  00000+0  14522-2 0  9997
2 45452  87.8878  62.0305 0001960 110.1884 249.9455 13.11416439275693
ONEWEB-0050             
1 45453U 20020AF  25327.35811741  .00004110  00000+0  43121-3 0  9993
2 45453  88.9229 261.2873 0004337  37.4897 322.6633 14.89344379309734
