[{"OBJECT_NAME":"ONEWEB-0092","OBJECT_ID":"2020-020P","EPOCH":"2025-11-23T07:44:31.623072","MEAN_MOTION":13.11419015,"ECCENTRICITY":0.0001523,"INCLINATION":87.8867,"RA_OF_ASC_NODE":62.0557,"ARG_OF_PERICENTER":105.4881,"MEAN_ANOMALY":254.6415,"EPHEMERIS_TYPE":0,"CLASSIFICATION_TYPE":"U","NORAD_CAT_ID":45437,"ELEMENT_SET_NO":999,"REV_AT_EPOCH":27580,"BSTAR":0.0011648,"MEAN_MOTION_DOT":4.26e-6,"MEAN_MOTION_DDOT":0},{"OBJECT_NAME":"ONEWEB-0085","OBJECT_ID":"2020-020Q","EPOCH":"2025-11-23T06:47:09.452256","MEAN_MOTION":13.11415451,"ECCENTRICITY":0.0001739,"INCLINATION":87.8865,"RA_OF_ASC_NODE":62.0737,"ARG_OF_PERICENTER":106.4893,"MEAN_ANOMALY":253.6426,"EPHEMERIS_TYPE":0,"CLASSIFICATION_TYPE":"U","NORAD_CAT_ID":45438,"ELEMENT_SET_NO":999,"REV_AT_EPOCH":27568,"BSTAR":-0.00029718,"MEAN_MOTION_DOT":-9.3e-7,"MEAN_MOTION_DDOT":0},{"OBJECT_NAME":"ONEWEB-0096","OBJECT_ID":"2020-020R","EPOCH":"2025-11-23T06:49:35.750784","MEAN_MOTION":13.11415255,"ECCENTRICITY":0.0001937,"INCLINATION":87.8874,"RA_OF_ASC_NODE":62.0517,"ARG_OF_PERICENTER":110.9827,"MEAN_ANOMALY":249.1508,"EPHEMERIS_TYPE":0,"CLASSIFICATION_TYPE":"U","NORAD_CAT_ID":45439,"ELEMENT_SET_NO":999,"REV_AT_EPOCH":27567,"BSTAR":-0.00040331,"MEAN_MOTION_DOT":-1.3e-6,"MEAN_MOTION_DDOT":0},{"OBJECT_NAME":"ONEWEB-0037","OBJECT_ID":"2020-020S","EPOCH":"2025-11-23T08:11:23.851392","MEAN_MOTION":13.11415424,"ECCENTRICITY":0.0001689,"INCLINATION":87.888,"RA_OF_ASC_NODE":62.0088,"ARG_OF_PERICENTER":106.9797,"MEAN_ANOMALY":253.1516,"EPHEMERIS_TYPE":0,"CLASSIFICATION_TYPE":"U","NORAD_CAT_ID":45440,"ELEMENT_SET_NO":999,"REV_AT_EPOCH":27571,"BSTAR":0.0015148,"MEAN_MOTION_DOT":5.5e-6,"MEAN_MOTION_DDOT":0},{"OBJECT_NAME":"ONEWEB-0042","OBJECT_ID":"2020-020T","EPOCH":"2025-11-23T06:34:45.333984","MEAN_MOTION":13.11415724,"ECCENTRICITY":0.0001588,"INCLINATION":87.8867,"RA_OF_ASC_NODE":62.0537,"ARG_OF_PERICENTER":107.4966,"MEAN_ANOMALY":252.6335,"EPHEMERIS_TYPE":0,"CLASSIFICATION_TYPE":"U","NORAD_CAT_ID":45441,"ELEMENT_SET_NO":999,"REV_AT_EPOCH":27567,"BSTAR":0.00057524,"MEAN_MOTION_DOT":2.17e-6,"MEAN_MOTION_DDOT":0},{"OBJECT_NAME":"ONEWEB-0098","OBJECT_ID":"2020-020U","EPOCH":"2025-11-23T08:18:42.645888","MEAN_MOTION":13.11416661,"ECCENTRICITY":0.0001833,"INCLINATION":87.8869,"RA_OF_ASC_NODE":62.0515,"ARG_OF_PERICENTER":103.8205,"MEAN_ANOMALY":256.3127,"EPHEMERIS_TYPE":0,"CLASSIFICATION_TYPE":"U","NORAD_CAT_ID":45442,"ELEMENT_SET_NO":999,"REV_AT_EPOCH":27566,"BSTAR":0.0011874,"MEAN_MOTION_DOT":4.34e-6,"MEAN_MOTION_DDOT":0},{"OBJECT_NAME":"ONEWEB-0055","OBJECT_ID":"2020-020V","EPOCH":"2025-11-23T07:54:18.198720","MEAN_MOTION":13.11417363,"ECCENTRICITY":0.0001833,"INCLINATION":87.8867,"RA_OF_ASC_NODE":62.0552,"ARG_OF_PERICENTER":104.6194,"MEAN_ANOMALY":255.5137,"EPHEMERIS_TYPE":0,"CLASSIFICATION_TYPE":"U","NORAD_CAT_ID":45443,"ELEMENT_SET_NO":999,"REV_AT_EPOCH":27563,"BSTAR":0.0016595,"MEAN_MOTION_DOT":6.01e-6,"MEAN_MOTION_DDOT":0},{"OBJECT_NAME":"ONEWEB-0093","OBJECT_ID":"2020-020W","EPOCH":"2025-11-23T07:19:05.449152","MEAN_MOTION":13.11417592,"ECCENTRICITY":0.0001806,"INCLINATION":87.8872,"RA_OF_ASC_NODE":62.0471,"ARG_OF_PERICENTER":118.9415,"MEAN_ANOMALY":241.1895,"EPHEMERIS_TYPE":0,"CLASSIFICATION_TYPE":"U","NORAD_CAT_ID":45444,"ELEMENT_SET_NO":999,"REV_AT_EPOCH":27569,"BSTAR":-0.00095909,"MEAN_MOTION_DOT":-3.27e-6,"MEAN_MOTION_DDOT":0},{"OBJECT_NAME":"ONEWEB-0029","OBJECT_ID":"2020-020X","EPOCH":"2025-11-23T07:42:04.882176","MEAN_MOTION":13.11420839,"ECCENTRICITY":0.0001876,"INCLINATION":87.887,"RA_OF_ASC_NODE":62.0562,"ARG_OF_PERICENTER":109.6138,"MEAN_ANOMALY":250.5193,"EPHEMERIS_TYPE":0,"CLASSIFICATION_TYPE":"U","NORAD_CAT_ID":45445,"ELEMENT_SET_NO":999,"REV_AT_EPOCH":27567,"BSTAR":0.00089417,"MEAN_MOTION_DOT":3.3e-6,"MEAN_MOTION_DDOT":0},{"OBJECT_NAME":"ONEWEB-0068","OBJECT_ID":"2020-020Y","EPOCH":"2025-11-23T07:18:41.854176","MEAN_MOTION":13.11417326,"ECCENTRICITY":0.0001843,"INCLINATION":87.8876,"RA_OF_ASC_NODE":62.049,"ARG_OF_PERICENTER":108.9008,"MEAN_ANOMALY":251.232,"EPHEMERIS_TYPE":0,"CLASSIFICATION_TYPE":"U","NORAD_CAT_ID":45446,"ELEMENT_SET_NO":999,"REV_AT_EPOCH":27561,"BSTAR":-0.0010436,"MEAN_MOTION_DOT":-3.57e-6,"MEAN_MOTION_DDOT":0},{"OBJECT_NAME":"ONEWEB-0046","OBJECT_ID":"2020-020Z","EPOCH":"2025-11-23T07:06:40.658688","MEAN_MOTION":13.11416989,"ECCENTRICITY":0.0001618,"INCLINATION":87.8876,"RA_OF_ASC_NODE":62.0589,"ARG_OF_PERICENTER":112.7635,"MEAN_ANOMALY":247.3664,"EPHEMERIS_TYPE":0,"CLASSIFICATION_TYPE":"U","NORAD_CAT_ID":45447,"ELEMENT_SET_NO":999,"REV_AT_EPOCH":27562,"BSTAR":-0.0012496,"MEAN_MOTION_DOT":-4.3e-6,"MEAN_MOTION_DDOT":0},{"OBJECT_NAME":"ONEWEB-0063","OBJECT_ID":"2020-020AA","EPOCH":"2025-11-23T07:48:12.113280","MEAN_MOTION":13.11418497,"ECCENTRICITY":0.0001535,"INCLINATION":87.887,"RA_OF_ASC_NODE":62.0502,"ARG_OF_PERICENTER":106.5488,"MEAN_ANOMALY":253.5809,"EPHEMERIS_TYPE":0,"CLASSIFICATION_TYPE":"U","NORAD_CAT_ID":45448,"ELEMENT_SET_NO":999,"REV_AT_EPOCH":27571,"BSTAR":0.0013691,"MEAN_MOTION_DOT":4.98e-6,"MEAN_MOTION_DDOT":0},{"OBJECT_NAME":"ONEWEB-0019","OBJECT_ID":"2020-020AB","EPOCH":"2025-11-23T07:10:19.572096","MEAN_MOTION":13.11415846,"ECCENTRICITY":0.0001835,"INCLINATION":87.8857,"RA_OF_ASC_NODE":62.0673,"ARG_OF_PERICENTER":104.6668,"MEAN_ANOMALY":255.4664,"EPHEMERIS_TYPE":0,"CLASSIFICATION_TYPE":"U","NORAD_CAT_ID":45449,"ELEMENT_SET_NO":999,"REV_AT_EPOCH":27555,"BSTAR":-0.0014082,"MEAN_MOTION_DOT":-4.86e-6,"MEAN_MOTION_DDOT":0},{"OBJECT_NAME":"ONEWEB-0094","OBJECT_ID":"2020-020AC","EPOCH":"2025-11-23T06:20:12.178176","MEAN_MOTION":13.17650347,"ECCENTRICITY":0.0001858,"INCLINATION":87.9134,"RA_OF_ASC_NODE":46.7817,"ARG_OF_PERICENTER":104.072,"MEAN_ANOMALY":256.0618,"EPHEMERIS_TYPE":0,"CLASSIFICATION_TYPE":"U","NORAD_CAT_ID":45450,"ELEMENT_SET_NO":999,"REV_AT_EPOCH":27919,"BSTAR":-0.00023773,"MEAN_MOTION_DOT":-7.9e-7,"MEAN_MOTION_DDOT":0},{"OBJECT_NAME":"ONEWEB-0087","OBJECT_ID":"2020-020AD","EPOCH":"2025-11-23T08:02:39.107904","MEAN_MOTION":13.11416213,"ECCENTRICITY":0.0002052,"INCLINATION":87.888,"RA_OF_ASC_NODE":62.0045,"ARG_OF_PERICENTER":112.6103,"MEAN_ANOMALY":247.5242,"EPHEMERIS_TYPE":0,"CLASSIFICATION_TYPE":"U","NORAD_CAT_ID":45451,"ELEMENT_SET_NO":999,"REV_AT_EPOCH":27560,"BSTAR":0.0017443,"MEAN_MOTION_DOT":6.31e-6,"MEAN_MOTION_DDOT":0},{"OBJECT_NAME":"ONEWEB-0082","OBJECT_ID":"2020-020AE","EPOCH":"2025-11-23T07:57:58.026240","MEAN_MOTION":13.11416439,"ECCENTRICITY":0.000196,"INCLINATION":87.8878,"RA_OF_ASC_NODE":62.0305,"ARG_OF_PERICENTER":110.1884,"MEAN_ANOMALY":249.9455,"EPHEMERIS_TYPE":0,"CLASSIFICATION_TYPE":"U","NORAD_CAT_ID":45452,"ELEMENT_SET_NO":999,"REV_AT_EPOCH":27569,"BSTAR":0.0014522,"MEAN_MOTION_DOT":5.27e-6,"MEAN_MOTION_DDOT":0},{"OBJECT_NAME":"ONEWEB-0050","OBJECT_ID":"2020-020AF","EPOCH":"2025-11-23T08:35:41.344224","MEAN_MOTION":14.89344379,"ECCENTRICITY":0.0004337,"INCLINATION":88.9229,"RA_OF_ASC_NODE":261.2873,"ARG_OF_PERICENTER":37.4897,"MEAN_ANOMALY":322.6633,"EPHEMERIS_TYPE":0,"CLASSIFICATION_TYPE":"U","NORAD_CAT_ID":45453,"ELEMENT_SET_NO":999,"REV_AT_EPOCH":30973,"BSTAR":0.00043121,"MEAN_MOTION_DOT":4.11e-5,"MEAN_MOTION_DDOT":0}]
